SL-4 R/B                
1 39679U 14021B   26031.34523232  .00011549  00000+0  26668-3 0  9998
2 39679  51.6067 159.2881 0098972 326.7801  32.6993 15.38010776650525
YAOGAN-29               
1 41038U 15069A   26031.54930178  .00000718  00000+0  95186-4 0  9994
2 41038  98.0186  59.8736 0002831  99.3654 260.7879 14.82951076550370
ASTRO-H (HITOMI)        
1 41337U 16012A   26030.88590962  .00003431  00000+0  20176-3 0  9995
2 41337  30.9982 240.4542 0009930 312.9190  47.0614 15.09722402546513
HXMT (HUIYAN)           
1 42758U 17034A   26031.58159414  .00004514  00000+0  23354-3 0  9993
2 42758  43.0121 222.9013 0032025 357.6715   2.3979 15.16965194476907
CZ-2C R/B               
1 43521U 18054D   26031.49058544  .00239495  21824-4  72116-3 0  9997
2 43521  35.1287 200.0287 0013492 301.7279  58.2143 15.90998763422930
SAOCOM 1A               
1 43641U 18076A   26031.49464181  .00001253  00000+0  16397-3 0  9998
2 43641  97.8863 220.1954 0001399  86.8665 273.2708 14.82149611395851
H-2A R/B                
1 43682U 18084L   26031.51396483  .00017947  00000+0  45145-3 0  9994
2 43682  98.8760 241.0023 0026120 150.8451 209.4254 15.39680951400052
SAOCOM 1B               
1 46265U 20059A   26031.52591774  .00000620  00000+0  84451-4 0  9994
2 46265  97.8858 219.3244 0001300  86.3691 273.7671 14.82152921293240
CSS (TIANHE)            
1 48274U 21035A   26030.17114424  .00032690  00000+0  37481-3 0  9996
2 48274  41.4674  82.2287 0009086  36.5911 323.5548 15.61350410271590
COSMOS 2550             
1 48865U 21056A   26026.13240542 -.00000181  00000+0  32270-6 0  9992
2 48865  67.1441 169.6578 0008309 269.8947  90.1255 15.33840202256938
CZ-2C R/B               
1 52794U 22058K   26031.44785569  .00026089  00000+0  42112-3 0  9991
2 52794  50.1888 149.4778 0042495  43.1104 317.3180 15.51638776204341
