CCSDS_OMM_VERS = 2.0
CREATION_DATE  = 
ORIGINATOR     = 

OBJECT_NAME    = SL-4 R/B
OBJECT_ID      = 2014-021B
CENTER_NAME    = EARTH
REF_FRAME      = TEME
TIME_SYSTEM    = UTC
MEAN_ELEMENT_THEORY = SGP/SGP4

EPOCH          = 2026-01-31T08:17:08.072448
MEAN_MOTION    = 15.38010776
ECCENTRICITY   = .0098972
INCLINATION    = 51.6067
RA_OF_ASC_NODE = 159.2881
ARG_OF_PERICENTER = 326.7801
MEAN_ANOMALY   = 32.6993

EPHEMERIS_TYPE = 0
CLASSIFICATION_TYPE = U
NORAD_CAT_ID   = 39679
ELEMENT_SET_NO = 999
REV_AT_EPOCH   = 65052
BSTAR          = .26668E-3
MEAN_MOTION_DOT = .11549E-3
MEAN_MOTION_DDOT = 0

CCSDS_OMM_VERS = 2.0
CREATION_DATE  = 
ORIGINATOR     = 

OBJECT_NAME    = YAOGAN-29
OBJECT_ID      = 2015-069A
CENTER_NAME    = EARTH
REF_FRAME      = TEME
TIME_SYSTEM    = UTC
MEAN_ELEMENT_THEORY = SGP/SGP4

EPOCH          = 2026-01-31T13:10:59.673792
MEAN_MOTION    = 14.82951076
ECCENTRICITY   = .0002831
INCLINATION    = 98.0186
RA_OF_ASC_NODE = 59.8736
ARG_OF_PERICENTER = 99.3654
MEAN_ANOMALY   = 260.7879

EPHEMERIS_TYPE = 0
CLASSIFICATION_TYPE = U
NORAD_CAT_ID   = 41038
ELEMENT_SET_NO = 999
REV_AT_EPOCH   = 55037
BSTAR          = .95186E-4
MEAN_MOTION_DOT = .718E-5
MEAN_MOTION_DDOT = 0

CCSDS_OMM_VERS = 2.0
CREATION_DATE  = 
ORIGINATOR     = 

OBJECT_NAME    = ASTRO-H (HITOMI)
OBJECT_ID      = 2016-012A
CENTER_NAME    = EARTH
REF_FRAME      = TEME
TIME_SYSTEM    = UTC
MEAN_ELEMENT_THEORY = SGP/SGP4

EPOCH          = 2026-01-30T21:15:42.591168
MEAN_MOTION    = 15.09722402
ECCENTRICITY   = .000993
INCLINATION    = 30.9982
RA_OF_ASC_NODE = 240.4542
ARG_OF_PERICENTER = 312.9190
MEAN_ANOMALY   = 47.0614

EPHEMERIS_TYPE = 0
CLASSIFICATION_TYPE = U
NORAD_CAT_ID   = 41337
ELEMENT_SET_NO = 999
REV_AT_EPOCH   = 54651
BSTAR          = .20176E-3
MEAN_MOTION_DOT = .3431E-4
MEAN_MOTION_DDOT = 0

CCSDS_OMM_VERS = 2.0
CREATION_DATE  = 
ORIGINATOR     = 

OBJECT_NAME    = HXMT (HUIYAN)
OBJECT_ID      = 2017-034A
CENTER_NAME    = EARTH
REF_FRAME      = TEME
TIME_SYSTEM    = UTC
MEAN_ELEMENT_THEORY = SGP/SGP4

EPOCH          = 2026-01-31T13:57:29.733696
MEAN_MOTION    = 15.16965194
ECCENTRICITY   = .0032025
INCLINATION    = 43.0121
RA_OF_ASC_NODE = 222.9013
ARG_OF_PERICENTER = 357.6715
MEAN_ANOMALY   = 2.3979

EPHEMERIS_TYPE = 0
CLASSIFICATION_TYPE = U
NORAD_CAT_ID   = 42758
ELEMENT_SET_NO = 999
REV_AT_EPOCH   = 47690
BSTAR          = .23354E-3
MEAN_MOTION_DOT = .4514E-4
MEAN_MOTION_DDOT = 0

CCSDS_OMM_VERS = 2.0
CREATION_DATE  = 
ORIGINATOR     = 

OBJECT_NAME    = CZ-2C R/B
OBJECT_ID      = 2018-054D
CENTER_NAME    = EARTH
REF_FRAME      = TEME
TIME_SYSTEM    = UTC
MEAN_ELEMENT_THEORY = SGP/SGP4

EPOCH          = 2026-01-31T11:46:26.582016
MEAN_MOTION    = 15.90998763
ECCENTRICITY   = .0013492
INCLINATION    = 35.1287
RA_OF_ASC_NODE = 200.0287
ARG_OF_PERICENTER = 301.7279
MEAN_ANOMALY   = 58.2143

EPHEMERIS_TYPE = 0
CLASSIFICATION_TYPE = U
NORAD_CAT_ID   = 43521
ELEMENT_SET_NO = 999
REV_AT_EPOCH   = 42293
BSTAR          = .72116E-3
MEAN_MOTION_DOT = .239495E-2
MEAN_MOTION_DDOT = .21824E-4

CCSDS_OMM_VERS = 2.0
CREATION_DATE  = 
ORIGINATOR     = 

OBJECT_NAME    = SAOCOM 1A
OBJECT_ID      = 2018-076A
CENTER_NAME    = EARTH
REF_FRAME      = TEME
TIME_SYSTEM    = UTC
MEAN_ELEMENT_THEORY = SGP/SGP4

EPOCH          = 2026-01-31T11:52:17.052384
MEAN_MOTION    = 14.82149611
ECCENTRICITY   = .0001399
INCLINATION    = 97.8863
RA_OF_ASC_NODE = 220.1954
ARG_OF_PERICENTER = 86.8665
MEAN_ANOMALY   = 273.2708

EPHEMERIS_TYPE = 0
CLASSIFICATION_TYPE = U
NORAD_CAT_ID   = 43641
ELEMENT_SET_NO = 999
REV_AT_EPOCH   = 39585
BSTAR          = .16397E-3
MEAN_MOTION_DOT = .1253E-4
MEAN_MOTION_DDOT = 0

CCSDS_OMM_VERS = 2.0
CREATION_DATE  = 
ORIGINATOR     = 

OBJECT_NAME    = H-2A R/B
OBJECT_ID      = 2018-084L
CENTER_NAME    = EARTH
REF_FRAME      = TEME
TIME_SYSTEM    = UTC
MEAN_ELEMENT_THEORY = SGP/SGP4

EPOCH          = 2026-01-31T12:20:06.561312
MEAN_MOTION    = 15.39680951
ECCENTRICITY   = .002612
INCLINATION    = 98.8760
RA_OF_ASC_NODE = 241.0023
ARG_OF_PERICENTER = 150.8451
MEAN_ANOMALY   = 209.4254

EPHEMERIS_TYPE = 0
CLASSIFICATION_TYPE = U
NORAD_CAT_ID   = 43682
ELEMENT_SET_NO = 999
REV_AT_EPOCH   = 40005
BSTAR          = .45145E-3
MEAN_MOTION_DOT = .17947E-3
MEAN_MOTION_DDOT = 0

CCSDS_OMM_VERS = 2.0
CREATION_DATE  = 
ORIGINATOR     = 

OBJECT_NAME    = SAOCOM 1B
OBJECT_ID      = 2020-059A
CENTER_NAME    = EARTH
REF_FRAME      = TEME
TIME_SYSTEM    = UTC
MEAN_ELEMENT_THEORY = SGP/SGP4

EPOCH          = 2026-01-31T12:37:19.292736
MEAN_MOTION    = 14.82152921
ECCENTRICITY   = .00013
INCLINATION    = 97.8858
RA_OF_ASC_NODE = 219.3244
ARG_OF_PERICENTER = 86.3691
MEAN_ANOMALY   = 273.7671

EPHEMERIS_TYPE = 0
CLASSIFICATION_TYPE = U
NORAD_CAT_ID   = 46265
ELEMENT_SET_NO = 999
REV_AT_EPOCH   = 29324
BSTAR          = .84451E-4
MEAN_MOTION_DOT = .62E-5
MEAN_MOTION_DDOT = 0

CCSDS_OMM_VERS = 2.0
CREATION_DATE  = 
ORIGINATOR     = 

OBJECT_NAME    = CSS (TIANHE)
OBJECT_ID      = 2021-035A
CENTER_NAME    = EARTH
REF_FRAME      = TEME
TIME_SYSTEM    = UTC
MEAN_ELEMENT_THEORY = SGP/SGP4

EPOCH          = 2026-01-30T04:06:26.862336
MEAN_MOTION    = 15.61350410
ECCENTRICITY   = .00090867
INCLINATION    = 41.4674
RA_OF_ASC_NODE = 82.2287
ARG_OF_PERICENTER = 36.5911
MEAN_ANOMALY   = 323.5548

EPHEMERIS_TYPE = 0
CLASSIFICATION_TYPE = U
NORAD_CAT_ID   = 48274
ELEMENT_SET_NO = 999
REV_AT_EPOCH   = 27159
BSTAR          = .3748084E-3
MEAN_MOTION_DOT = .3269E-3
MEAN_MOTION_DDOT = 0

CCSDS_OMM_VERS = 2.0
CREATION_DATE  = 
ORIGINATOR     = 

OBJECT_NAME    = COSMOS 2550
OBJECT_ID      = 2021-056A
CENTER_NAME    = EARTH
REF_FRAME      = TEME
TIME_SYSTEM    = UTC
MEAN_ELEMENT_THEORY = SGP/SGP4

EPOCH          = 2026-01-26T03:10:39.828288
MEAN_MOTION    = 15.33840202
ECCENTRICITY   = .00083094
INCLINATION    = 67.1441
RA_OF_ASC_NODE = 169.6578
ARG_OF_PERICENTER = 269.8947
MEAN_ANOMALY   = 90.1255

EPHEMERIS_TYPE = 0
CLASSIFICATION_TYPE = U
NORAD_CAT_ID   = 48865
ELEMENT_SET_NO = 999
REV_AT_EPOCH   = 25693
BSTAR          = .322698E-6
MEAN_MOTION_DOT = -.181E-5
MEAN_MOTION_DDOT = 0

CCSDS_OMM_VERS = 2.0
CREATION_DATE  = 
ORIGINATOR     = 

OBJECT_NAME    = CZ-2C R/B
OBJECT_ID      = 2022-058K
CENTER_NAME    = EARTH
REF_FRAME      = TEME
TIME_SYSTEM    = UTC
MEAN_ELEMENT_THEORY = SGP/SGP4

EPOCH          = 2026-01-31T10:44:54.731616
MEAN_MOTION    = 15.51638776
ECCENTRICITY   = .0042495
INCLINATION    = 50.1888
RA_OF_ASC_NODE = 149.4778
ARG_OF_PERICENTER = 43.1104
MEAN_ANOMALY   = 317.3180

EPHEMERIS_TYPE = 0
CLASSIFICATION_TYPE = U
NORAD_CAT_ID   = 52794
ELEMENT_SET_NO = 999
REV_AT_EPOCH   = 20434
BSTAR          = .42112E-3
MEAN_MOTION_DOT = .26089E-3
MEAN_MOTION_DDOT = 0

